1 08820U 76039A   03057.24609826 -.00000015  00000-0  10000-3 0  8984
2 08820 109.8255 143.6202 0044237 325.1984  34.5811  6.38664629369976
